ORBCOMM FM20            
1 25416U 98046D   24201.60996020  .00001869  00000+0  69280-3 0  9997
2 25416  44.9954 314.3647 0001680 230.8301 129.2397 14.35467374356444
ORBCOMM FM16            
1 25417U 98046E   24201.58803500  .00002693  00000+0  95626-3 0  9994
2 25417  44.9951 309.6850 0001682  77.0379 283.0656 14.36538727356385
ORBCOMM FM15            
1 25418U 98046F   24201.62801774  .00002689  00000+0  96037-3 0  9993
2 25418  44.9983 313.7258 0001462  87.5946 272.5069 14.36248851356399
ORBCOMM FM14            
1 25419U 98046G   24201.57406120  .00002851  00000+0  10112-2 0  9994
2 25419  44.9972 312.9898 0000089  68.0725 292.0132 14.36446394356347
ORBCOMM FM13            
1 25420U 98046H   24201.58687759  .00002620  00000+0  94768-3 0  9990
2 25420  44.9988 318.2123 0002542  44.0202 316.0847 14.35669513355401
ORBCOMM FM21            
1 25475U 98053A   24201.54184168  .00002360  00000+0  86046-3 0  9991
2 25475  45.0092  42.8515 0000467  48.5828 311.5059 14.35561516349414
ORBCOMM FM22            
1 25476U 98053B   24201.56183481  .00002506  00000+0  90026-3 0  9996
2 25476  45.0085  39.7413 0001716 358.2744   1.8097 14.36142210349413
ORBCOMM FM23            
1 25477U 98053C   24201.56770312  .00002008  00000+0  73867-3 0  9993
2 25477  45.0091  45.1299 0001243   2.2736 357.8117 14.35611118349566
